{"type": "FeatureCollection", "features": [ {"type": "Feature", "properties": {"norad_id": 33867, "name": "IRIDIUM 33 DEB", "group": "iridium-33-debris", "lat": -0.9906344142142348, "lon": 164.95565790964503, "alt_km": 293.0600400334315, "timestamp": "2025-12-22T14:45:57.790056+00:00", "meta": {"OBJECT_NAME": "IRIDIUM 33 DEB", "OBJECT_ID": "1997-051AL", "EPOCH": "2025-12-21T22:55:51.892608", "MEAN_MOTION": 15.90971468, "ECCENTRICITY": 0.00142431, "INCLINATION": 86.3678, "RA_OF_ASC_NODE": 345.2476, "ARG_OF_PERICENTER": 91.4909, "MEAN_ANOMALY": 268.8005, "EPHEMERIS_TYPE": 0, "CLASSIFICATION_TYPE": "U", "NORAD_CAT_ID": 33867, "ELEMENT_SET_NO": 999, "REV_AT_EPOCH": 89656, "BSTAR": 0.0080181802, "MEAN_MOTION_DOT": 0.02400384, "MEAN_MOTION_DDOT": 0.0036963455}, "tle": {"line1": "1 33867U 97051AL  25355.95546172  .02400384  36963-2  80182-2 0  9999", "line2": "2 33867  86.3678 345.2476 0014243  91.4909 268.8005 15.90971468896567"}}, "geometry": {"type": "Point", "coordinates": [164.95565790964503, -0.9906344142142348]}}, {"type": "Feature", "properties": {"norad_id": 33870, "name": "IRIDIUM 33 DEB", "group": "iridium-33-debris", "lat": -37.256978445277966, "lon": -123.20769545969829, "alt_km": 740.2791562725506, "timestamp": "2025-12-22T14:45:57.790067+00:00", "meta": {"OBJECT_NAME": "IRIDIUM 33 DEB", "OBJECT_ID": "1997-051AP", "EPOCH": "2025-12-21T16:45:39.932640", "MEAN_MOTION": 14.4589225, "ECCENTRICITY": 0.00223371, "INCLINATION": 86.3739, "RA_OF_ASC_NODE": 54.4207, "ARG_OF_PERICENTER": 149.5314, "MEAN_ANOMALY": 337.9924, "EPHEMERIS_TYPE": 0, "CLASSIFICATION_TYPE": "U", "NORAD_CAT_ID": 33870, "ELEMENT_SET_NO": 999, "REV_AT_EPOCH": 88266, "BSTAR": 0.00052328901, "MEAN_MOTION_DOT": 1.884e-05, "MEAN_MOTION_DDOT": 0}, "tle": {"line1": "1 33870U 97051AP  25355.69837885  .00001884  00000+0  52329-3 0  9991", "line2": "2 33870  86.3739  54.4207 0022337 149.5314 337.9924 14.45892250882662"}}, "geometry": {"type": "Point", "coordinates": [-123.20769545969829, -37.256978445277966]}}, {"type": "Feature", "properties": {"norad_id": 33881, "name": "IRIDIUM 33 DEB", "group": "iridium-33-debris", "lat": 71.92520001568329, "lon": -88.71285698952387, "alt_km": 661.180027572922, "timestamp": "2025-12-22T14:45:57.790078+00:00", "meta": {"OBJECT_NAME": "IRIDIUM 33 DEB", "OBJECT_ID": "1997-051BA", "EPOCH": "2025-12-22T01:53:28.694112", "MEAN_MOTION": 14.56726775, "ECCENTRICITY": 0.00613657, "INCLINATION": 86.3868, "RA_OF_ASC_NODE": 102.6839, "ARG_OF_PERICENTER": 144.447, "MEAN_ANOMALY": 32.1992, "EPHEMERIS_TYPE": 0, "CLASSIFICATION_TYPE": "U", "NORAD_CAT_ID": 33881, "ELEMENT_SET_NO": 999, "REV_AT_EPOCH": 87636, "BSTAR": 0.0020421303, "MEAN_MOTION_DOT": 9.388e-05, "MEAN_MOTION_DDOT": 0}, "tle": {"line1": "1 33881U 97051BA  25356.07880433  .00009388  00000+0  20421-2 0  9997", "line2": "2 33881  86.3868 102.6839 0061365 144.4470  32.1992 14.56726775876364"}}, "geometry": {"type": "Point", "coordinates": [-88.71285698952387, 71.92520001568329]}}, {"type": "Feature", "properties": {"norad_id": 33884, "name": "IRIDIUM 33 DEB", "group": "iridium-33-debris", "lat": 74.94872387998804, "lon": 19.018082864949715, "alt_km": 635.3287493839962, "timestamp": "2025-12-22T14:45:57.790090+00:00", "meta": {"OBJECT_NAME": "IRIDIUM 33 DEB", "OBJECT_ID": "1997-051BD", "EPOCH": "2025-12-21T19:42:17.168256", "MEAN_MOTION": 14.77591703, "ECCENTRICITY": 0.00089767, "INCLINATION": 86.3691, "RA_OF_ASC_NODE": 5.7181, "ARG_OF_PERICENTER": 287.8241, "MEAN_ANOMALY": 245.5748, "EPHEMERIS_TYPE": 0, "CLASSIFICATION_TYPE": "U", "NORAD_CAT_ID": 33884, "ELEMENT_SET_NO": 999, "REV_AT_EPOCH": 88981, "BSTAR": 0.0012315655, "MEAN_MOTION_DOT": 8.831e-05, "MEAN_MOTION_DDOT": 0}, "tle": {"line1": "1 33884U 97051BD  25355.82103204  .00008831  00000+0  12316-2 0  9992", "line2": "2 33884  86.3691   5.7181 0008976 287.8241 245.5748 14.77591703889818"}}, "geometry": {"type": "Point", "coordinates": [19.018082864949715, 74.94872387998804]}}, {"type": "Feature", "properties": {"norad_id": 33886, "name": "IRIDIUM 33 DEB", "group": "iridium-33-debris", "lat": -30.819555343831254, "lon": 60.90876890642248, "alt_km": 782.6957446962115, "timestamp": "2025-12-22T14:45:57.790101+00:00", "meta": {"OBJECT_NAME": "IRIDIUM 33 DEB", "OBJECT_ID": "1997-051BF", "EPOCH": "2025-12-22T06:53:02.836032", "MEAN_MOTION": 14.36062568, "ECCENTRICITY": 0.00131714, "INCLINATION": 86.3822, "RA_OF_ASC_NODE": 63.2101, "ARG_OF_PERICENTER": 207.5974, "MEAN_ANOMALY": 224.7282, "EPHEMERIS_TYPE": 0, "CLASSIFICATION_TYPE": "U", "NORAD_CAT_ID": 33886, "ELEMENT_SET_NO": 999, "REV_AT_EPOCH": 88189, "BSTAR": 0.00017600062, "MEAN_MOTION_DOT": 5.32e-06, "MEAN_MOTION_DDOT": 0}, "tle": {"line1": "1 33886U 97051BF  25356.28683838  .00000532  00000+0  17600-3 0  9993", "line2": "2 33886  86.3822  63.2101 0013171 207.5974 224.7282 14.36062568881891"}}, "geometry": {"type": "Point", "coordinates": [60.90876890642248, -30.819555343831254]}}, {"type": "Feature", "properties": {"norad_id": 33887, "name": "IRIDIUM 33 DEB", "group": "iridium-33-debris", "lat": -53.03996272004412, "lon": -5.791593178328618, "alt_km": 776.5893474199356, "timestamp": "2025-12-22T14:45:57.790112+00:00", "meta": {"OBJECT_NAME": "IRIDIUM 33 DEB", "OBJECT_ID": "1997-051BG", "EPOCH": "2025-12-21T18:06:57.603168", "MEAN_MOTION": 14.37228506, "ECCENTRICITY": 0.00053942, "INCLINATION": 86.3041, "RA_OF_ASC_NODE": 359.5069, "ARG_OF_PERICENTER": 190.9714, "MEAN_ANOMALY": 346.844, "EPHEMERIS_TYPE": 0, "CLASSIFICATION_TYPE": "U", "NORAD_CAT_ID": 33887, "ELEMENT_SET_NO": 999, "REV_AT_EPOCH": 88294, "BSTAR": 0.00011880703, "MEAN_MOTION_DOT": 3.73e-06, "MEAN_MOTION_DDOT": 0}, "tle": {"line1": "1 33887U 97051BG  25355.75483337  .00000373  00000+0  11881-3 0  9995", "line2": "2 33887  86.3041 359.5069 0005394 190.9714 346.8440 14.37228506882940"}}, "geometry": {"type": "Point", "coordinates": [-5.791593178328618, -53.03996272004412]}}, {"type": "Feature", "properties": {"norad_id": 33953, "name": "IRIDIUM 33 DEB", "group": "iridium-33-debris", "lat": 84.97333310181065, "lon": 95.46700695509294, "alt_km": 688.310747171221, "timestamp": "2025-12-22T14:45:57.790123+00:00", "meta": {"OBJECT_NAME": "IRIDIUM 33 DEB", "OBJECT_ID": "1997-051BN", "EPOCH": "2025-12-22T04:44:25.619136", "MEAN_MOTION": 14.55406947, "ECCENTRICITY": 0.00178347, "INCLINATION": 86.3836, "RA_OF_ASC_NODE": 49.6744, "ARG_OF_PERICENTER": 73.9809, "MEAN_ANOMALY": 345.1929, "EPHEMERIS_TYPE": 0, "CLASSIFICATION_TYPE": "U", "NORAD_CAT_ID": 33953, "ELEMENT_SET_NO": 999, "REV_AT_EPOCH": 88441, "BSTAR": 0.0010994661, "MEAN_MOTION_DOT": 4.805e-05, "MEAN_MOTION_DDOT": 0}, "tle": {"line1": "1 33953U 97051BN  25356.19751874  .00004805  00000+0  10995-2 0  9990", "line2": "2 33953  86.3836  49.6744 0017834  73.9809 345.1929 14.55406947884415"}}, "geometry": {"type": "Point", "coordinates": [95.46700695509294, 84.97333310181065]}}, {"type": "Feature", "properties": {"norad_id": 33960, "name": "IRIDIUM 33 DEB", "group": "iridium-33-debris", "lat": -57.83875063635993, "lon": 110.83694386493963, "alt_km": 623.6538696424077, "timestamp": "2025-12-22T14:45:57.790134+00:00", "meta": {"OBJECT_NAME": "IRIDIUM 33 DEB", "OBJECT_ID": "1997-051BV", "EPOCH": "2025-12-22T06:09:23.968224", "MEAN_MOTION": 14.8563682, "ECCENTRICITY": 0.00072716, "INCLINATION": 86.2544, "RA_OF_ASC_NODE": 285.0259, "ARG_OF_PERICENTER": 45.0097, "MEAN_ANOMALY": 75.6646, "EPHEMERIS_TYPE": 0, "CLASSIFICATION_TYPE": "U", "NORAD_CAT_ID": 33960, "ELEMENT_SET_NO": 999, "REV_AT_EPOCH": 89008, "BSTAR": 0.0034646151, "MEAN_MOTION_DOT": 0.00030136, "MEAN_MOTION_DDOT": 0}, "tle": {"line1": "1 33960U 97051BV  25356.25652741  .00030136  00000+0  34646-2 0  9993", "line2": "2 33960  86.2544 285.0259 0007271  45.0097  75.6646 14.85636820890087"}}, "geometry": {"type": "Point", "coordinates": [110.83694386493963, -57.83875063635993]}}, {"type": "Feature", "properties": {"norad_id": 33966, "name": "IRIDIUM 33 DEB", "group": "iridium-33-debris", "lat": 7.928893959762351, "lon": 42.292472842777904, "alt_km": 733.9949330486652, "timestamp": "2025-12-22T14:45:57.790145+00:00", "meta": {"OBJECT_NAME": "IRIDIUM 33 DEB", "OBJECT_ID": "1997-051CB", "EPOCH": "2025-12-22T05:06:20.316096", "MEAN_MOTION": 14.49629498, "ECCENTRICITY": 0.00084645, "INCLINATION": 86.3912, "RA_OF_ASC_NODE": 41.9616, "ARG_OF_PERICENTER": 158.4906, "MEAN_ANOMALY": 270.3649, "EPHEMERIS_TYPE": 0, "CLASSIFICATION_TYPE": "U", "NORAD_CAT_ID": 33966, "ELEMENT_SET_NO": 999, "REV_AT_EPOCH": 88579, "BSTAR": 0.00046269479, "MEAN_MOTION_DOT": 1.798e-05, "MEAN_MOTION_DDOT": 0}, "tle": {"line1": "1 33966U 97051CB  25356.21273514  .00001798  00000+0  46269-3 0  9999", "line2": "2 33966  86.3912  41.9616 0008464 158.4906 270.3649 14.49629498885794"}}, "geometry": {"type": "Point", "coordinates": [42.292472842777904, 7.928893959762351]}}, {"type": "Feature", "properties": {"norad_id": 34071, "name": "IRIDIUM 33 DEB", "group": "iridium-33-debris", "lat": 69.61963083249029, "lon": 23.443559589623565, "alt_km": 713.6750666173111, "timestamp": "2025-12-22T14:45:57.790155+00:00", "meta": {"OBJECT_NAME": "IRIDIUM 33 DEB", "OBJECT_ID": "1997-051CE", "EPOCH": "2025-12-22T02:50:50.639424", "MEAN_MOTION": 14.49504105, "ECCENTRICITY": 0.00099182, "INCLINATION": 86.3448, "RA_OF_ASC_NODE": 13.7514, "ARG_OF_PERICENTER": 82.3168, "MEAN_ANOMALY": 277.9162, "EPHEMERIS_TYPE": 0, "CLASSIFICATION_TYPE": "U", "NORAD_CAT_ID": 34071, "ELEMENT_SET_NO": 999, "REV_AT_EPOCH": 88470, "BSTAR": 0.00053057175, "MEAN_MOTION_DOT": 2.053e-05, "MEAN_MOTION_DDOT": 0}, "tle": {"line1": "1 34071U 97051CE  25356.11864166  .00002053  00000+0  53057-3 0  9993", "line2": "2 34071  86.3448  13.7514 0009918  82.3168 277.9162 14.49504105884700"}}, "geometry": {"type": "Point", "coordinates": [23.443559589623565, 69.61963083249029]}}]}